[{"OBJECT_NAME":"STARLINK-33950","OBJECT_ID":"2025-087E","EPOCH":"2026-03-09T17:29:57.630336","MEAN_MOTION":15.30192816,"ECCENTRICITY":9.985e-5,"INCLINATION":53.1597,"RA_OF_ASC_NODE":219.517,"ARG_OF_PERICENTER":101.0763,"MEAN_ANOMALY":259.035,"EPHEMERIS_TYPE":0,"CLASSIFICATION_TYPE":"U","NORAD_CAT_ID":63701,"ELEMENT_SET_NO":999,"REV_AT_EPOCH":4920,"BSTAR":0.00043160775,"MEAN_MOTION_DOT":0.00012442,"MEAN_MOTION_DDOT":0},{"OBJECT_NAME":"FREGAT DEB","OBJECT_ID":"2011-037BA","EPOCH":"2026-03-07T21:51:11.179584","MEAN_MOTION":11.85982955,"ECCENTRICITY":0.16068404,"INCLINATION":51.4778,"RA_OF_ASC_NODE":309.8732,"ARG_OF_PERICENTER":204.2893,"MEAN_ANOMALY":147.3247,"EPHEMERIS_TYPE":0,"CLASSIFICATION_TYPE":"U","NORAD_CAT_ID":45816,"ELEMENT_SET_NO":999,"REV_AT_EPOCH":24023,"BSTAR":0.0038548869,"MEAN_MOTION_DOT":0.00018183,"MEAN_MOTION_DDOT":0}]
